$$SOE
2459580.500000000, A.D. 2022-Jan-01 00:00:00.0000, 4.022506971045775E+08, 4.594219197616293E+07, -1.535883822640298E+07,
2459587.500000000, A.D. 2022-Jan-08 00:00:00.0000, 4.005238847973605E+08, 5.708373006453869E+07, -1.496811471115599E+07,
2459594.500000000, A.D. 2022-Jan-15 00:00:00.0000, 3.985041704207030E+08, 6.818333856443986E+07, -1.456644002813941E+07,
2459601.500000000, A.D. 2022-Jan-22 00:00:00.0000, 3.961924030158038E+08, 7.923279389694883E+07, -1.415408568472316E+07,
2459608.500000000, A.D. 2022-Jan-29 00:00:00.0000, 3.935896914127560E+08, 9.022388436685595E+07, -1.373133354127387E+07,
2459615.500000000, A.D. 2022-Feb-05 00:00:00.0000, 3.906974026287065E+08, 1.011484191244361E+08, -1.329847541237092E+07,
2459622.500000000, A.D. 2022-Feb-12 00:00:00.0000, 3.875171620042228E+08, 1.119982361336594E+08, -1.285581293300779E+07,
2459629.500000000, A.D. 2022-Feb-19 00:00:00.0000, 3.840508537438111E+08, 1.227652114918583E+08, -1.240365737512364E+07,
2459636.500000000, A.D. 2022-Feb-26 00:00:00.0000, 3.803006205438566E+08, 1.334412693540826E+08, -1.194232935383803E+07,
2459643.500000000, A.D. 2022-Mar-05 00:00:00.0000, 3.762688624642123E+08, 1.440183918204889E+08, -1.147215848920532E+07,
2459650.500000000, A.D. 2022-Mar-12 00:00:00.0000, 3.719582352636160E+08, 1.544886286957402E+08, -1.099348305013687E+07,
2459657.500000000, A.D. 2022-Mar-19 00:00:00.0000, 3.673716482698495E+08, 1.648441071229923E+08, -1.050664958573498E+07,
2459664.500000000, A.D. 2022-Mar-26 00:00:00.0000, 3.625122618085812E+08, 1.750770410611395E+08, -1.001201254764472E+07,
2459671.500000000, A.D. 2022-Apr-02 00:00:00.0000, 3.573834842622297E+08, 1.851797405243628E+08, -9.509933915317781E+06,
2459678.500000000, A.D. 2022-Apr-09 00:00:00.0000, 3.519889690368060E+08, 1.951446205636812E+08, -9.000782849949956E+06,
2459685.500000000, A.D. 2022-Apr-16 00:00:00.0000, 3.463326118008440E+08, 2.049642106180774E+08, -8.484935357768089E+06,
2459692.500000000, A.D. 2022-Apr-23 00:00:00.0000, 3.404185467324659E+08, 2.146311652930608E+08, -7.962773758823454E+06,
2459699.500000000, A.D. 2022-Apr-30 00:00:00.0000, 3.342511399128876E+08, 2.241382743004544E+08, -7.434685973986551E+06,
2459706.500000000, A.D. 2022-May-07 00:00:00.0000, 3.278349829454404E+08, 2.334784695645708E+08, -6.901065073670283E+06,
2459713.500000000, A.D. 2022-May-14 00:00:00.0000, 3.211748882032386E+08, 2.426448325077892E+08, -6.362308969001427E+06,
2459720.500000000, A.D. 2022-May-21 00:00:00.0000, 3.142758836866806E+08, 2.516306022515906E+08, -5.818819998311475E+06,
2459727.500000000, A.D. 2022-May-28 00:00:00.0000, 3.071432070273592E+08, 2.604291837542528E+08, -5.271004444514602E+06,
2459734.500000000, A.D. 2022-Jun-04 00:00:00.0000, 2.997822989330370E+08, 2.690341555534782E+08, -4.719272035570607E+06,
2459741.500000000, A.D. 2022-Jun-11 00:00:00.0000, 2.921987962371935E+08, 2.774392770984262E+08, -4.164035442357123E+06,
2459748.500000000, A.D. 2022-Jun-18 00:00:00.0000, 2.843985246118670E+08, 2.856384956681777E+08, -3.605709777633458E+06,
2459755.500000000, A.D. 2022-Jun-25 00:00:00.0000, 2.763874909945144E+08, 2.936259528287598E+08, -3.044712102696851E+06,
2459762.500000000, A.D. 2022-Jul-02 00:00:00.0000, 2.681718758856230E+08, 3.013959903498113E+08, -2.481460960573986E+06,
2459769.500000000, A.D. 2022-Jul-09 00:00:00.0000, 2.597580259317680E+08, 3.089431557456666E+08, -1.916375958330870E+06,
2459776.500000000, A.D. 2022-Jul-16 00:00:00.0000, 2.511524467640390E+08, 3.162622085098826E+08, -1.349877306423724E+06,
2459783.500000000, A.D. 2022-Jul-23 00:00:00.0000, 2.423617939137913E+08, 3.233481271048122E+08, -7.823851083351672E+05,
2459790.500000000, A.D. 2022-Jul-30 00:00:00.0000, 2.333928619076324E+08, 3.301961133436781E+08, -2.143186828610748E+05,
2459797.500000000, A.D. 2022-Aug-06 00:00:00.0000, 2.242525751646540E+08, 3.368015948110112E+08, 3.539038028823584E+05,
2459804.500000000, A.D. 2022-Aug-13 00:00:00.0000, 2.149479798970889E+08, 3.431602280722334E+08, 9.218656892949641E+05,
2459811.500000000, A.D. 2022-Aug-20 00:00:00.0000, 2.054862354689642E+08, 3.492679021681824E+08, 1.489152271143913E+06,
2459818.500000000, A.D. 2022-Aug-27 00:00:00.0000, 1.958746053072698E+08, 3.551207416694432E+08, 2.055351269136444E+06,
2459825.500000000, A.D. 2022-Sep-03 00:00:00.0000, 1.861204476403328E+08, 3.607151091811557E+08, 2.620053293603972E+06,
2459832.500000000, A.D. 2022-Sep-10 00:00:00.0000, 1.762312061788410E+08, 3.660476073234314E+08, 3.182852293091074E+06,
2459839.500000000, A.D. 2022-Sep-17 00:00:00.0000, 1.662144007926016E+08, 3.711150801878584E+08, 3.743345984108835E+06,
2459846.500000000, A.D. 2022-Sep-24 00:00:00.0000, 1.560776182658417E+08, 3.759146142230865E+08, 4.301136251486361E+06,
2459853.500000000, A.D. 2022-Oct-01 00:00:00.0000, 1.458285033924900E+08, 3.804435385331854E+08, 4.855829494648755E+06,
2459860.500000000, A.D. 2022-Oct-08 00:00:00.0000, 1.354747508400653E+08, 3.846994251193922E+08, 5.407036924268574E+06,
2459867.500000000, A.D. 2022-Oct-15 00:00:00.0000, 1.250240968725183E+08, 3.886800902734391E+08, 5.954374991697639E+06,
2459874.500000000, A.D. 2022-Oct-22 00:00:00.0000, 1.144843087696399E+08, 3.923835954443172E+08, 6.497466012792587E+06,
2459881.500000000, A.D. 2022-Oct-29 00:00:00.0000, 1.038631744557261E+08, 3.958082449960932E+08, 7.035938544808060E+06,
2459888.500000000, A.D. 2022-Nov-05 00:00:00.0000, 9.316849445599332E+07, 3.989525836151304E+08, 7.569427547137678E+06,
2459895.500000000, A.D. 2022-Nov-12 00:00:00.0000, 8.240807423511516E+07, 4.018153946466180E+08, 8.097574608858109E+06,
2459902.500000000, A.D. 2022-Nov-19 00:00:00.0000, 7.158971621403874E+07, 4.043956984184787E+08, 8.620028230675906E+06,
2459909.500000000, A.D. 2022-Nov-26 00:00:00.0000, 6.072121174178234E+07, 4.066927501695805E+08, 9.136444104513764E+06,
2459916.500000000, A.D. 2022-Dec-03 00:00:00.0000, 4.981033320219224E+07, 4.087060375856870E+08, 9.646485374380708E+06,
2459923.500000000, A.D. 2022-Dec-10 00:00:00.0000, 3.886482631413794E+07, 4.104352779767346E+08, 1.014982287575302E+07,
2459930.500000000, A.D. 2022-Dec-17 00:00:00.0000, 2.789240266139870E+07, 4.118804150851074E+08, 1.064613534908018E+07,
2459937.500000000, A.D. 2022-Dec-24 00:00:00.0000, 1.690073257134240E+07, 4.130416154736878E+08, 1.113510961198181E+07,
2459944.500000000, A.D. 2022-Dec-31 00:00:00.0000, 5.897438707642789E+06, 4.139192646165167E+08, 1.161644066618577E+07,
2459951.500000000, A.D. 2023-Jan-07 00:00:00.0000, -5.109909494215367E+06, 4.145139636719246E+08, 1.208983180673927E+07,
2459958.500000000, A.D. 2023-Jan-14 00:00:00.0000, -1.611380250889142E+07, 4.148265274534255E+08, 1.255499495459488E+07,
2459965.500000000, A.D. 2023-Jan-21 00:00:00.0000, -2.710679915944876E+07, 4.148579804398237E+08, 1.301165101272407E+07,
2459972.500000000, A.D. 2023-Jan-28 00:00:00.0000, -3.808153314312151E+07, 4.146095506453981E+08, 1.345952989417192E+07,
2459979.500000000, A.D. 2023-Feb-04 00:00:00.0000, -4.903071785032938E+07, 4.140826644001378E+08, 1.389837048915130E+07,
2459986.500000000, A.D. 2023-Feb-11 00:00:00.0000, -5.994715126748464E+07, 4.132789418642432E+08, 1.432792072039151E+07,
2459993.500000000, A.D. 2023-Feb-18 00:00:00.0000, -7.082372102480868E+07, 4.122001924687747E+08, 1.474793762584111E+07,
2460000.500000000, A.D. 2023-Feb-25 00:00:00.0000, -8.165340932610823E+07, 4.108484101361324E+08, 1.515818743204910E+07,
2460007.500000000, A.D. 2023-Mar-04 00:00:00.0000, -9.242929765898339E+07, 4.092257683148546E+08, 1.555844561104953E+07,
2460014.500000000, A.D. 2023-Mar-11 00:00:00.0000, -1.031445712582279E+08, 4.073346148447614E+08, 1.594849691885656E+07,
2460021.500000000, A.D. 2023-Mar-18 00:00:00.0000, -1.137925232771831E+08, 4.051774666181180E+08, 1.632813540791163E+07,
2460028.500000000, A.D. 2023-Mar-25 00:00:00.0000, -1.243665584657160E+08, 4.027570040039160E+08, 1.669716439166149E+07,
2460035.500000000, A.D. 2023-Apr-01 00:00:00.0000, -1.348601959326205E+08, 4.000760654416413E+08, 1.705539635511944E+07,
2460042.500000000, A.D. 2023-Apr-08 00:00:00.0000, -1.452670716111079E+08, 3.971376434416817E+08, 1.740265296852821E+07,
2460049.500000000, A.D. 2023-Apr-15 00:00:00.0000, -1.555809427674927E+08, 3.939448808973220E+08, 1.773876532853827E+07,
2460056.500000000, A.D. 2023-Apr-22 00:00:00.0000, -1.657956927478650E+08, 3.905010646624570E+08, 1.806357401216447E+07,
2460063.500000000, A.D. 2023-Apr-29 00:00:00.0000, -1.759053332381634E+08, 3.868096186558081E+08, 1.837692887774885E+07,
2460070.500000000, A.D. 2023-May-06 00:00:00.0000, -1.859040058084974E+08, 3.828740982884582E+08, 1.867868892072189E+07,
2460077.500000000, A.D. 2023-May-13 00:00:00.0000, -1.957859837248083E+08, 3.786981853354833E+08, 1.896872220122924E+07,
2460084.500000000, A.D. 2023-May-20 00:00:00.0000, -2.055456737993018E+08, 3.742856827713343E+08, 1.924690578239186E+07,
2460091.500000000, A.D. 2023-May-27 00:00:00.0000, -2.151776180922089E+08, 3.696405095484981E+08, 1.951312565931123E+07,
2460098.500000000, A.D. 2023-Jun-03 00:00:00.0000, -2.246764954138213E+08, 3.647666953531182E+08, 1.976727667585485E+07,
2460105.500000000, A.D. 2023-Jun-10 00:00:00.0000, -2.340371226100680E+08, 3.596683753305519E+08, 2.000926242609784E+07,
2460112.500000000, A.D. 2023-Jun-17 00:00:00.0000, -2.432544555500414E+08, 3.543497847268324E+08, 2.023899512754607E+07,
2460119.500000000, A.D. 2023-Jun-24 00:00:00.0000, -2.523235895032146E+08, 3.488152535071151E+08, 2.045639544157176E+07,
2460126.500000000, A.D. 2023-Jul-01 00:00:00.0000, -2.612397586615105E+08, 3.430692017842218E+08, 2.066139228580037E+07,
2460133.500000000, A.D. 2023-Jul-08 00:00:00.0000, -2.699983364895034E+08, 3.371161368851332E+08, 2.085392285948068E+07,
2460140.500000000, A.D. 2023-Jul-15 00:00:00.0000, -2.785948381872534E+08, 3.309606492322027E+08, 2.103393276797214E+07,
2460147.500000000, A.D. 2023-Jul-22 00:00:00.0000, -2.870249217493088E+08, 3.246074060069330E+08, 2.120137583916518E+07,
$$EOE